{"type": "FeatureCollection", "features": [ {"type": "Feature", "properties": {"norad_id": 33779, "name": "COSMOS 2251 DEB", "group": "cosmos-2251-debris", "lat": -24.91674149259931, "lon": 136.44273366538204, "alt_km": 673.932321913845, "timestamp": "2025-12-26T11:25:45.583272+00:00", "meta": {"OBJECT_NAME": "COSMOS 2251 DEB", "OBJECT_ID": "1993-036U", "EPOCH": "2025-12-25T19:45:34.828992", "MEAN_MOTION": 14.70801648, "ECCENTRICITY": 0.00157913, "INCLINATION": 74.0448, "RA_OF_ASC_NODE": 145.3462, "ARG_OF_PERICENTER": 178.3148, "MEAN_ANOMALY": 300.1025, "EPHEMERIS_TYPE": 0, "CLASSIFICATION_TYPE": "U", "NORAD_CAT_ID": 33779, "ELEMENT_SET_NO": 999, "REV_AT_EPOCH": 88720, "BSTAR": 0.0028394103, "MEAN_MOTION_DOT": 0.0001739, "MEAN_MOTION_DDOT": 0}, "tle": {"line1": "1 33779U 93036U   25359.82331978  .00017390  00000+0  28394-2 0  9992", "line2": "2 33779  74.0448 145.3462 0015791 178.3148 300.1025 14.70801648887203"}}, "geometry": {"type": "Point", "coordinates": [136.44273366538204, -24.91674149259931]}}, {"type": "Feature", "properties": {"norad_id": 33782, "name": "COSMOS 2251 DEB", "group": "cosmos-2251-debris", "lat": 42.98801240074471, "lon": -92.3787383180214, "alt_km": 752.9734406132984, "timestamp": "2025-12-26T11:25:45.583281+00:00", "meta": {"OBJECT_NAME": "COSMOS 2251 DEB", "OBJECT_ID": "1993-036X", "EPOCH": "2025-12-26T03:35:04.036128", "MEAN_MOTION": 14.40479298, "ECCENTRICITY": 0.002116, "INCLINATION": 74.0326, "RA_OF_ASC_NODE": 252.7468, "ARG_OF_PERICENTER": 315.8981, "MEAN_ANOMALY": 194.7355, "EPHEMERIS_TYPE": 0, "CLASSIFICATION_TYPE": "U", "NORAD_CAT_ID": 33782, "ELEMENT_SET_NO": 999, "REV_AT_EPOCH": 88319, "BSTAR": 0.00033356, "MEAN_MOTION_DOT": 1.037e-05, "MEAN_MOTION_DDOT": 0}, "tle": {"line1": "1 33782U 93036X   25360.14935227  .00001037  00000+0  33356-3 0  9996", "line2": "2 33782  74.0326 252.7468 0021160 315.8981 194.7355 14.40479298883197"}}, "geometry": {"type": "Point", "coordinates": [-92.3787383180214, 42.98801240074471]}}, {"type": "Feature", "properties": {"norad_id": 33785, "name": "COSMOS 2251 DEB", "group": "cosmos-2251-debris", "lat": -49.01256118976694, "lon": 13.532550463442124, "alt_km": 649.8603422538072, "timestamp": "2025-12-26T11:25:45.583290+00:00", "meta": {"OBJECT_NAME": "COSMOS 2251 DEB", "OBJECT_ID": "1993-036AA", "EPOCH": "2025-12-26T03:45:30.005856", "MEAN_MOTION": 14.70781381, "ECCENTRICITY": 0.0023268, "INCLINATION": 73.8666, "RA_OF_ASC_NODE": 33.6182, "ARG_OF_PERICENTER": 330.836, "MEAN_ANOMALY": 85.8793, "EPHEMERIS_TYPE": 0, "CLASSIFICATION_TYPE": "U", "NORAD_CAT_ID": 33785, "ELEMENT_SET_NO": 999, "REV_AT_EPOCH": 88704, "BSTAR": 0.0018387, "MEAN_MOTION_DOT": 0.00011258, "MEAN_MOTION_DDOT": 0}, "tle": {"line1": "1 33785U 93036AA  25360.15659729  .00011258  00000+0  18387-2 0  9992", "line2": "2 33785  73.8666  33.6182 0023268 330.8360  85.8793 14.70781381887048"}}, "geometry": {"type": "Point", "coordinates": [13.532550463442124, -49.01256118976694]}}, {"type": "Feature", "properties": {"norad_id": 33789, "name": "COSMOS 2251 DEB", "group": "cosmos-2251-debris", "lat": 39.31027169433519, "lon": 77.6222242774011, "alt_km": 1051.927937260044, "timestamp": "2025-12-26T11:25:45.583300+00:00", "meta": {"OBJECT_NAME": "COSMOS 2251 DEB", "OBJECT_ID": "1993-036AE", "EPOCH": "2025-12-26T04:27:17.638848", "MEAN_MOTION": 13.88824301, "ECCENTRICITY": 0.0239488, "INCLINATION": 74.0643, "RA_OF_ASC_NODE": 64.5864, "ARG_OF_PERICENTER": 177.2449, "MEAN_ANOMALY": 213.6217, "EPHEMERIS_TYPE": 0, "CLASSIFICATION_TYPE": "U", "NORAD_CAT_ID": 33789, "ELEMENT_SET_NO": 999, "REV_AT_EPOCH": 85282, "BSTAR": 0.000593, "MEAN_MOTION_DOT": 8.78e-06, "MEAN_MOTION_DDOT": 0}, "tle": {"line1": "1 33789U 93036AE  25360.18562082  .00000878  00000+0  59300-3 0  9991", "line2": "2 33789  74.0643  64.5864 0239488 177.2449 213.6217 13.88824301852822"}}, "geometry": {"type": "Point", "coordinates": [77.6222242774011, 39.31027169433519]}}, {"type": "Feature", "properties": {"norad_id": 33791, "name": "COSMOS 2251 DEB", "group": "cosmos-2251-debris", "lat": 72.13231332939297, "lon": 73.90511098918205, "alt_km": 752.9037210393044, "timestamp": "2025-12-26T11:25:45.583309+00:00", "meta": {"OBJECT_NAME": "COSMOS 2251 DEB", "OBJECT_ID": "1993-036AG", "EPOCH": "2025-12-26T01:12:40.370400", "MEAN_MOTION": 14.43195882, "ECCENTRICITY": 0.0029994, "INCLINATION": 74.1749, "RA_OF_ASC_NODE": 13.0671, "ARG_OF_PERICENTER": 207.6065, "MEAN_ANOMALY": 183.1967, "EPHEMERIS_TYPE": 0, "CLASSIFICATION_TYPE": "U", "NORAD_CAT_ID": 33791, "ELEMENT_SET_NO": 999, "REV_AT_EPOCH": 88244, "BSTAR": 0.00089296, "MEAN_MOTION_DOT": 2.994e-05, "MEAN_MOTION_DDOT": 0}, "tle": {"line1": "1 33791U 93036AG  25360.05046725  .00002994  00000+0  89296-3 0  9999", "line2": "2 33791  74.1749  13.0671 0029994 207.6065 183.1967 14.43195882882440"}}, "geometry": {"type": "Point", "coordinates": [73.90511098918205, 72.13231332939297]}}, {"type": "Feature", "properties": {"norad_id": 33792, "name": "COSMOS 2251 DEB", "group": "cosmos-2251-debris", "lat": 0.45827364099884693, "lon": -36.46003683466259, "alt_km": 798.0227202213528, "timestamp": "2025-12-26T11:25:45.583319+00:00", "meta": {"OBJECT_NAME": "COSMOS 2251 DEB", "OBJECT_ID": "1993-036AH", "EPOCH": "2025-12-26T01:02:49.375392", "MEAN_MOTION": 13.45849631, "ECCENTRICITY": 0.0427885, "INCLINATION": 73.9014, "RA_OF_ASC_NODE": 324.0982, "ARG_OF_PERICENTER": 26.3273, "MEAN_ANOMALY": 41.092, "EPHEMERIS_TYPE": 0, "CLASSIFICATION_TYPE": "U", "NORAD_CAT_ID": 33792, "ELEMENT_SET_NO": 999, "REV_AT_EPOCH": 82621, "BSTAR": 0.0011851, "MEAN_MOTION_DOT": 1.21e-05, "MEAN_MOTION_DDOT": 0}, "tle": {"line1": "1 33792U 93036AH  25360.04362703  .00001210  00000+0  11851-2 0  9997", "line2": "2 33792  73.9014 324.0982 0427885  26.3273  41.0920 13.45849631826214"}}, "geometry": {"type": "Point", "coordinates": [-36.46003683466259, 0.45827364099884693]}}, {"type": "Feature", "properties": {"norad_id": 33793, "name": "COSMOS 2251 DEB", "group": "cosmos-2251-debris", "lat": -68.27890322165041, "lon": 78.8021434441027, "alt_km": 750.7365431445587, "timestamp": "2025-12-26T11:25:45.583328+00:00", "meta": {"OBJECT_NAME": "COSMOS 2251 DEB", "OBJECT_ID": "1993-036AJ", "EPOCH": "2025-12-25T15:40:17.961024", "MEAN_MOTION": 14.27767266, "ECCENTRICITY": 0.0078975, "INCLINATION": 73.9809, "RA_OF_ASC_NODE": 126.4479, "ARG_OF_PERICENTER": 274.0481, "MEAN_ANOMALY": 100.9183, "EPHEMERIS_TYPE": 0, "CLASSIFICATION_TYPE": "U", "NORAD_CAT_ID": 33793, "ELEMENT_SET_NO": 999, "REV_AT_EPOCH": 87391, "BSTAR": 0.00079111, "MEAN_MOTION_DOT": 1.993e-05, "MEAN_MOTION_DDOT": 0}, "tle": {"line1": "1 33793U 93036AJ  25359.65298566  .00001993  00000+0  79111-3 0  9990", "line2": "2 33793  73.9809 126.4479 0078975 274.0481 100.9183 14.27767266873916"}}, "geometry": {"type": "Point", "coordinates": [78.8021434441027, -68.27890322165041]}}, {"type": "Feature", "properties": {"norad_id": 33795, "name": "COSMOS 2251 DEB", "group": "cosmos-2251-debris", "lat": 52.640546647503676, "lon": -153.4673273931957, "alt_km": 522.3401754771903, "timestamp": "2025-12-26T11:25:45.583337+00:00", "meta": {"OBJECT_NAME": "COSMOS 2251 DEB", "OBJECT_ID": "1993-036AL", "EPOCH": "2025-12-26T03:02:28.716864", "MEAN_MOTION": 15.05954965, "ECCENTRICITY": 0.0030263, "INCLINATION": 74.0312, "RA_OF_ASC_NODE": 49.279, "ARG_OF_PERICENTER": 127.3395, "MEAN_ANOMALY": 262.851, "EPHEMERIS_TYPE": 0, "CLASSIFICATION_TYPE": "U", "NORAD_CAT_ID": 33795, "ELEMENT_SET_NO": 999, "REV_AT_EPOCH": 90223, "BSTAR": 0.0010818, "MEAN_MOTION_DOT": 0.00015909, "MEAN_MOTION_DDOT": 0}, "tle": {"line1": "1 33795U 93036AL  25360.12672126  .00015909  00000+0  10818-2 0  9994", "line2": "2 33795  74.0312  49.2790 0030263 127.3395 262.8510 15.05954965902230"}}, "geometry": {"type": "Point", "coordinates": [-153.4673273931957, 52.640546647503676]}}, {"type": "Feature", "properties": {"norad_id": 33797, "name": "COSMOS 2251 DEB", "group": "cosmos-2251-debris", "lat": 71.8085704543257, "lon": 128.33701012761864, "alt_km": 650.2263149403234, "timestamp": "2025-12-26T11:25:45.583346+00:00", "meta": {"OBJECT_NAME": "COSMOS 2251 DEB", "OBJECT_ID": "1993-036AN", "EPOCH": "2025-12-26T01:24:10.608768", "MEAN_MOTION": 14.57893353, "ECCENTRICITY": 0.0060361, "INCLINATION": 74.0465, "RA_OF_ASC_NODE": 9.6455, "ARG_OF_PERICENTER": 93.4807, "MEAN_ANOMALY": 333.5575, "EPHEMERIS_TYPE": 0, "CLASSIFICATION_TYPE": "U", "NORAD_CAT_ID": 33797, "ELEMENT_SET_NO": 999, "REV_AT_EPOCH": 89179, "BSTAR": 0.00037616, "MEAN_MOTION_DOT": 1.738e-05, "MEAN_MOTION_DDOT": 0}, "tle": {"line1": "1 33797U 93036AN  25360.05845612  .00001738  00000+0  37616-3 0  9991", "line2": "2 33797  74.0465   9.6455 0060361  93.4807 333.5575 14.57893353891796"}}, "geometry": {"type": "Point", "coordinates": [128.33701012761864, 71.8085704543257]}}, {"type": "Feature", "properties": {"norad_id": 33798, "name": "COSMOS 2251 DEB", "group": "cosmos-2251-debris", "lat": 41.49929455950502, "lon": 124.99650800845048, "alt_km": 805.0297727780926, "timestamp": "2025-12-26T11:25:45.583355+00:00", "meta": {"OBJECT_NAME": "COSMOS 2251 DEB", "OBJECT_ID": "1993-036AP", "EPOCH": "2025-12-25T15:49:19.517088", "MEAN_MOTION": 14.44631109, "ECCENTRICITY": 0.0092307, "INCLINATION": 74.0295, "RA_OF_ASC_NODE": 111.8414, "ARG_OF_PERICENTER": 230.4067, "MEAN_ANOMALY": 246.0836, "EPHEMERIS_TYPE": 0, "CLASSIFICATION_TYPE": "U", "NORAD_CAT_ID": 33798, "ELEMENT_SET_NO": 999, "REV_AT_EPOCH": 88780, "BSTAR": 0.00020296, "MEAN_MOTION_DOT": 7.11e-06, "MEAN_MOTION_DDOT": 0}, "tle": {"line1": "1 33798U 93036AP  25359.65925367  .00000711  00000+0  20296-3 0  9998", "line2": "2 33798  74.0295 111.8414 0092307 230.4067 246.0836 14.44631109887805"}}, "geometry": {"type": "Point", "coordinates": [124.99650800845048, 41.49929455950502]}}]}